ONEWEB-0474             
1 51654U 22012AJ  24029.45722373 -.00000299  00000+0 -89188-3 0  9996
2 51654  87.8900 209.0316 0001803  97.8923 262.2409 13.10376163 95398
ONEWEB-0475             
1 51655U 22012AK  24029.44967265  .00000034  00000+0  54952-4 0  9994
2 51655  87.9230 178.8407 0001984 106.7132 253.4217 13.17648801 99157
ONEWEB-0490             
1 54113U 22138A   24029.66757950  .00000107  00000+0  23550-3 0  9997
2 54113  87.9190 118.0647 0001966 102.4205 257.7148 13.19724441 62146
ONEWEB-0492             
1 54114U 22138B   24029.31377992  .00000046  00000+0  82543-4 0  9994
2 54114  87.9197 118.1305 0002139  98.3594 261.7781 13.19725467 62106
ONEWEB-0495             
1 54115U 22138C   24029.67075395  .00000104  00000+0  22848-3 0  9992
2 54115  87.9195 118.0711 0002281 105.0686 255.0699 13.19724789 62134
ONEWEB-0497             
1 54116U 22138D   24029.30430832  .00000034  00000+0  51614-4 0  9990
2 54116  87.9192 118.1384 0001977 103.2659 256.8694 13.19725371 62075
ONEWEB-0499             
1 54117U 22138E   24029.66600719  .00000163  00000+0  37436-3 0  9991
2 54117  87.9197 118.0615 0001982 120.3818 239.7511 13.19726331 62132
ONEWEB-0500             
1 54118U 22138F   24029.66918194  .00000127  00000+0  28446-3 0  9992
2 54118  87.9194 118.0611 0001910 100.5025 259.6323 13.19725606 62144
